SKYSAT-C1               
1 41601U 16040C   26201.36374534  .00004976  00000+0  14048-3 0  9994
2 41601  96.9554 231.2938 0000631 198.3803 161.7420 15.36798698562963
LAPAN-A3                
1 41603U 16040E   26201.93315233  .00001948  00000+0  62833-4 0  9992
2 41603  97.1509 196.9777 0008344 250.8368 109.1972 15.33299968559984
GAOFEN-3                
1 41727U 16049A   26201.94040606 -.00000018  00000+0  76828-5 0  9996
2 41727  98.4023 209.2176 0001769  84.1586 275.9805 14.42218890523512
SKYSAT-C4               
1 41771U 16058B   26201.85754089  .00012435  00000+0  22685-3 0  9997
2 41771  96.9174 222.2407 0003556 110.3890 249.7744 15.49556266550688
SKYSAT-C5               
1 41772U 16058C   26201.69166530  .00004310  00000+0  13427-3 0  9995
2 41772  97.0451 240.8233 0003140 147.2624 212.8814 15.33763083548883
SKYSAT-C2               
1 41773U 16058D   26201.02132536  .00007045  00000+0  16310-3 0  9994
2 41773  97.0163 221.8941 0000811 320.8207  39.2982 15.42746945550111
SKYSAT-C3               
1 41774U 16058E   26201.06439642  .00014503  00000+0  22691-3 0  9993
2 41774  96.8998 230.6733 0002719 127.1966 232.9537 15.53846132551212
ALSAT-1B                
1 41785U 16059C   26201.94974551  .00000213  00000+0  41076-4 0  9998
2 41785  97.7761 209.2574 0010666 113.6829 246.5500 14.72297001525548
PATHFINDER 1            
1 41787U 16059E   26201.95182432  .00000380  00000+0  74396-4 0  9996
2 41787  97.8180 199.7064 0029960  98.2539 262.2066 14.67697522524666
SCATSAT 1               
1 41790U 16059H   26201.75716868  .00000701  00000+0  98579-4 0  9990
2 41790  98.1173 265.8672 0055582 138.9504 221.5910 14.79595605106551
GOKTURK 1A              
1 41875U 16073A   26201.96864245  .00000169  00000+0  42179-4 0  9999
2 41875  98.1201  96.1063 0001433  80.9235 279.2128 14.62795622513768
RESOURCESAT-2A          
1 41877U 16074A   26201.92474214 -.00000262  00000+0 -99240-4 0  9998
2 41877  98.7511 275.1512 0002058  15.3631 344.7609 14.21608319499096
CARTOSAT-2D             
1 41948U 17008A   26201.94639292  .00000921  00000+0  46794-4 0  9992
2 41948  97.4087 260.6181 0006487 122.9993 237.1866 15.19306857522701
SENTINEL-2B             
1 42063U 17013A   26201.91380976 -.00000167  00000+0 -47162-4 0  9990
2 42063  98.5677 276.2104 0001239  94.2071 265.9254 14.30815337489468
CARTOSAT-2E             
1 42767U 17036C   26201.96427190  .00001690  00000+0  83328-4 0  9995
2 42767  97.4253 261.2065 0003959 169.3131 190.8189 15.19277896503278
FORMOSAT-5              
1 42920U 17049A   26201.91373657  .00000036  00000+0  20248-4 0  9998
2 42920  98.2242 276.4724 0010934 345.9762  14.1128 14.50908777471569
SENTINEL-5P             
1 42969U 17064A   26201.82364026  .00000021  00000+0  30746-4 0  9996
2 42969  98.7929 143.7171 0001181  92.5876 267.5435 14.19523916454330
SKYSAT-C11              
1 42987U 17068A   26201.88858936  .00022322  00000+0  28234-3 0  9990
2 42987  97.4389 352.2374 0001487 152.1856 207.9480 15.59533664488496
SKYSAT-C10              
1 42988U 17068B   26201.93136944  .00007555  00000+0  22357-3 0  9996
2 42988  97.4543 339.1285 0001559 110.5311 249.6100 15.35188117487537
SKYSAT-C9               
1 42989U 17068C   26201.91925611  .00009064  00000+0  21235-3 0  9993
2 42989  97.4465 340.3789 0008146  25.7743 334.3909 15.42300468487957
SKYSAT-C8               
1 42990U 17068D   26201.91589708  .00007342  00000+0  20151-3 0  9991
2 42990  97.4560 339.0428 0001308 107.1679 252.9709 15.37560720487491
SKYSAT-C7               
1 42991U 17068E   26201.91056262  .00007142  00000+0  19633-3 0  9997
2 42991  97.4572 340.0294 0005174   1.1896 358.9360 15.37509962487555
SKYSAT-C6               
1 42992U 17068F   26201.93262288  .00006379  00000+0  19492-3 0  9991
2 42992  97.4610 339.8793 0004939  74.5210 285.6578 15.34229924487495
CARTOSAT-2F             
1 43111U 18004A   26201.93124476  .00000432  00000+0  23742-4 0  9990
2 43111  97.4765 261.2325 0002780 124.3869 235.7629 15.19193815472450
GAOFEN-1 02             
1 43259U 18031A   26201.98055697 -.00000169  00000+0 -16816-4 0  9999
2 43259  98.0505 264.4100 0001517 248.4722 111.6326 14.76474320447689
GAOFEN-1 03             
1 43260U 18031B   26201.95869012  .00000383  00000+0  62433-4 0  9994
2 43260  98.0499 264.2427 0001947 357.8383   2.2818 14.76467308447676
GAOFEN-1 04             
1 43262U 18031D   26201.93444892  .00000211  00000+0  37753-4 0  9996
2 43262  98.0506 264.4136 0000916  52.7487 307.3806 14.76441395447660
SENTINEL-3B             
1 43437U 18039A   26201.78190778  .00000036  00000+0  32817-4 0  9993
2 43437  98.6231 268.8292 0001267 118.6255 241.5053 14.26737354428919
GAOFEN-5 01             
1 43461U 18043A   26201.90300102  .00000192  00000+0  49629-4 0  9995
2 43461  98.4595 174.2023 0001756  19.3304 340.7962 14.60625801436612
GAOFEN-6                
1 43484U 18048A   26201.95724738  .00000418  00000+0  67703-4 0  9999
2 43484  98.0949 264.6726 0012017  65.5929 294.6533 14.76387969438371
